{
  "type": "FeatureCollection",
  "features": [
    {
      "type": "Feature",
      "properties": {
        "norad_id": 44334,
        "name": "EUTELSAT 7C",
        "group": "eutelsat",
        "lat": 0.027630040375419513,
        "lon": -156.67804282120753,
        "alt_km": 35778.41063549723,
        "timestamp": "2025-12-27T06:41:30.570240+00:00",
        "meta_object_name": "EUTELSAT 7C",
        "meta_object_id": "2019-034B",
        "meta_epoch": "2025-12-24T14:50:38.546016",
        "meta_mean_motion": 1.00270796,
        "meta_eccentricity": 0.00031593,
        "meta_inclination": 0.0726,
        "meta_ra_of_asc_node": 177.7928,
        "meta_arg_of_pericenter": 79.9691,
        "meta_mean_anomaly": 65.2631,
        "meta_ephemeris_type": 0,
        "meta_classification_type": "U",
        "meta_norad_cat_id": 44334,
        "meta_element_set_no": 999,
        "meta_rev_at_epoch": 508,
        "meta_bstar": 0,
        "meta_mean_motion_dot": 6.9e-07,
        "meta_mean_motion_ddot": 0,
        "tle_line1": "1 44334U 19034B   25358.61850169  .00000069  00000+0  00000+0 0  9997",
        "tle_line2": "2 44334   0.0726 177.7928 0003159  79.9691  65.2631  1.00270796  5083"
      },
      "geometry": {
        "type": "Point",
        "coordinates": [
          -156.67804282120753,
          0.027630040375419513
        ]
      }
    },
    {
      "type": "Feature",
      "properties": {
        "norad_id": 44624,
        "name": "EUTELSAT 5 WEST B",
        "group": "eutelsat",
        "lat": -0.028692562657249374,
        "lon": -168.65528492807528,
        "alt_km": 35784.35514612505,
        "timestamp": "2025-12-27T06:41:30.570252+00:00",
        "meta_object_name": "EUTELSAT 5 WEST B",
        "meta_object_id": "2019-067A",
        "meta_epoch": "2025-12-25T22:47:38.488128",
        "meta_mean_motion": 1.0027127,
        "meta_eccentricity": 0.00031947,
        "meta_inclination": 0.0622,
        "meta_ra_of_asc_node": 345.9649,
        "meta_arg_of_pericenter": 287.5339,
        "meta_mean_anomaly": 158.1146,
        "meta_ephemeris_type": 0,
        "meta_classification_type": "U",
        "meta_norad_cat_id": 44624,
        "meta_element_set_no": 999,
        "meta_rev_at_epoch": 2270,
        "meta_bstar": 0,
        "meta_mean_motion_dot": -2.1e-07,
        "meta_mean_motion_ddot": 0,
        "tle_line1": "1 44624U 19067A   25359.94975102 -.00000021  00000+0  00000+0 0  9996",
        "tle_line2": "2 44624   0.0622 345.9649 0003194 287.5339 158.1146  1.00271270 22703"
      },
      "geometry": {
        "type": "Point",
        "coordinates": [
          -168.65528492807528,
          -0.028692562657249374
        ]
      }
    },
    {
      "type": "Feature",
      "properties": {
        "norad_id": 45027,
        "name": "EUTELSAT KONNECT",
        "group": "eutelsat",
        "lat": 0.06352542724448489,
        "lon": -156.47010860869432,
        "alt_km": 35787.72636159794,
        "timestamp": "2025-12-27T06:41:30.570264+00:00",
        "meta_object_name": "EUTELSAT KONNECT",
        "meta_object_id": "2020-005B",
        "meta_epoch": "2025-12-24T23:24:19.351008",
        "meta_mean_motion": 1.00267204,
        "meta_eccentricity": 0.0001571,
        "meta_inclination": 0.069,
        "meta_ra_of_asc_node": 93.7711,
        "meta_arg_of_pericenter": 204.5991,
        "meta_mean_anomaly": 153.6522,
        "meta_ephemeris_type": 0,
        "meta_classification_type": "U",
        "meta_norad_cat_id": 45027,
        "meta_element_set_no": 999,
        "meta_rev_at_epoch": 2259,
        "meta_bstar": 0,
        "meta_mean_motion_dot": 7e-07,
        "meta_mean_motion_ddot": 0,
        "tle_line1": "1 45027U 20005B   25358.97522397  .00000070  00000+0  00000+0 0  9997",
        "tle_line2": "2 45027   0.0690  93.7711 0001571 204.5991 153.6522  1.00267204 22591"
      },
      "geometry": {
        "type": "Point",
        "coordinates": [
          -156.47010860869432,
          0.06352542724448489
        ]
      }
    },
    {
      "type": "Feature",
      "properties": {
        "norad_id": 49056,
        "name": "EUTELSAT QUANTUM",
        "group": "eutelsat",
        "lat": -0.021511336898773294,
        "lon": -115.94628919007643,
        "alt_km": 35774.34995803444,
        "timestamp": "2025-12-27T06:41:30.570275+00:00",
        "meta_object_name": "EUTELSAT QUANTUM",
        "meta_object_id": "2021-069B",
        "meta_epoch": "2025-12-26T20:46:38.726400",
        "meta_mean_motion": 1.00271496,
        "meta_eccentricity": 0.0003633,
        "meta_inclination": 0.0145,
        "meta_ra_of_asc_node": 30.9761,
        "meta_arg_of_pericenter": 253.2092,
        "meta_mean_anomaly": 170.7797,
        "meta_ephemeris_type": 0,
        "meta_classification_type": "U",
        "meta_norad_cat_id": 49056,
        "meta_element_set_no": 999,
        "meta_rev_at_epoch": 1620,
        "meta_bstar": 0,
        "meta_mean_motion_dot": 1.48e-06,
        "meta_mean_motion_ddot": 0,
        "tle_line1": "1 49056U 21069B   25360.86572600  .00000148  00000+0  00000+0 0  9993",
        "tle_line2": "2 49056   0.0145  30.9761 0003633 253.2092 170.7797  1.00271496 16207"
      },
      "geometry": {
        "type": "Point",
        "coordinates": [
          -115.94628919007643,
          -0.021511336898773294
        ]
      }
    },
    {
      "type": "Feature",
      "properties": {
        "norad_id": 53765,
        "name": "EUTELSAT KONNECT VHTS",
        "group": "eutelsat",
        "lat": 0.05294624202646791,
        "lon": -160.95403487436002,
        "alt_km": 35781.682779535106,
        "timestamp": "2025-12-27T06:41:30.570287+00:00",
        "meta_object_name": "EUTELSAT KONNECT VHTS",
        "meta_object_id": "2022-110A",
        "meta_epoch": "2025-12-26T08:51:38.739168",
        "meta_mean_motion": 1.00265206,
        "meta_eccentricity": 0.0002544,
        "meta_inclination": 0.058,
        "meta_ra_of_asc_node": 98.5588,
        "meta_arg_of_pericenter": 155.2379,
        "meta_mean_anomaly": 336.9389,
        "meta_ephemeris_type": 0,
        "meta_classification_type": "U",
        "meta_norad_cat_id": 53765,
        "meta_element_set_no": 999,
        "meta_rev_at_epoch": 509,
        "meta_bstar": 0,
        "meta_mean_motion_dot": 3.8e-07,
        "meta_mean_motion_ddot": 0,
        "tle_line1": "1 53765U 22110A   25360.36919837  .00000038  00000+0  00000+0 0  9993",
        "tle_line2": "2 53765   0.0580  98.5588 0002544 155.2379 336.9389  1.00265206  5098"
      },
      "geometry": {
        "type": "Point",
        "coordinates": [
          -160.95403487436002,
          0.05294624202646791
        ]
      }
    },
    {
      "type": "Feature",
      "properties": {
        "norad_id": 54048,
        "name": "EUTELSAT HOTBIRD 13F",
        "group": "eutelsat",
        "lat": -0.05244830309443684,
        "lon": -150.64010391605785,
        "alt_km": 35794.336981321474,
        "timestamp": "2025-12-27T06:41:30.570299+00:00",
        "meta_object_name": "EUTELSAT HOTBIRD 13F",
        "meta_object_id": "2022-134A",
        "meta_epoch": "2025-12-24T23:25:56.697024",
        "meta_mean_motion": 1.00270775,
        "meta_eccentricity": 0.0002211,
        "meta_inclination": 0.0545,
        "meta_ra_of_asc_node": 289.4002,
        "meta_arg_of_pericenter": 71.817,
        "meta_mean_anomaly": 97.0057,
        "meta_ephemeris_type": 0,
        "meta_classification_type": "U",
        "meta_norad_cat_id": 54048,
        "meta_element_set_no": 999,
        "meta_rev_at_epoch": 1163,
        "meta_bstar": 0,
        "meta_mean_motion_dot": 1.08e-06,
        "meta_mean_motion_ddot": 0,
        "tle_line1": "1 54048U 22134A   25358.97635066  .00000108  00000+0  00000+0 0  9995",
        "tle_line2": "2 54048   0.0545 289.4002 0002211  71.8170  97.0057  1.00270775 11630"
      },
      "geometry": {
        "type": "Point",
        "coordinates": [
          -150.64010391605785,
          -0.05244830309443684
        ]
      }
    },
    {
      "type": "Feature",
      "properties": {
        "norad_id": 54225,
        "name": "EUTELSAT HOTBIRD 13G",
        "group": "eutelsat",
        "lat": -0.025818879766300568,
        "lon": -150.63889989642604,
        "alt_km": 35780.64131029515,
        "timestamp": "2025-12-27T06:41:30.570311+00:00",
        "meta_object_name": "EUTELSAT HOTBIRD 13G",
        "meta_object_id": "2022-146A",
        "meta_epoch": "2025-12-24T00:28:38.654112",
        "meta_mean_motion": 1.00268836,
        "meta_eccentricity": 0.00017131,
        "meta_inclination": 0.0535,
        "meta_ra_of_asc_node": 227.8066,
        "meta_arg_of_pericenter": 307.349,
        "meta_mean_anomaly": 297.8001,
        "meta_ephemeris_type": 0,
        "meta_classification_type": "U",
        "meta_norad_cat_id": 54225,
        "meta_element_set_no": 999,
        "meta_rev_at_epoch": 571,
        "meta_bstar": 0,
        "meta_mean_motion_dot": 1.08e-06,
        "meta_mean_motion_ddot": 0,
        "tle_line1": "1 54225U 22146A   25358.01989183  .00000108  00000+0  00000+0 0  9992",
        "tle_line2": "2 54225   0.0535 227.8066 0001713 307.3490 297.8001  1.00268836  5716"
      },
      "geometry": {
        "type": "Point",
        "coordinates": [
          -150.63889989642604,
          -0.025818879766300568
        ]
      }
    }
  ]
}